{
  "norad_id": 64120,
  "name": "STARLINK-34151",
  "history": [
    {
      "epoch": "2026-03-28T20:44:31.640640Z",
      "apogee_km": 476.11982853917834,
      "perigee_km": 474.3463134322092,
      "latitude_deg": -3.0048406186505604e-05,
      "longitude_deg": 160.60835700132068,
      "height_km": 476.26206366853404,
      "semi_major_axis_km": 6853.370070985694,
      "eccentricity": 0.00012939,
      "inclination_deg": 53.1585,
      "raan_deg": 298.0188,
      "arg_perigee_deg": 98.5014,
      "mean_anomaly_deg": 261.6133,
      "mean_motion_rev_day": 15.30193971
    },
    {
      "epoch": "2026-03-28T23:52:38.063136Z",
      "apogee_km": 476.01036413812835,
      "perigee_km": 474.4491671889109,
      "latitude_deg": -1.7104871710898043e-05,
      "longitude_deg": 112.84505149951227,
      "height_km": 476.1222974981764,
      "semi_major_axis_km": 6853.36676566352,
      "eccentricity": 0.0001139,
      "inclination_deg": 53.1584,
      "raan_deg": 297.411,
      "arg_perigee_deg": 89.5926,
      "mean_anomaly_deg": 270.5205,
      "mean_motion_rev_day": 15.30195078
    },
    {
      "epoch": "2026-03-30T00:57:29.321280Z",
      "apogee_km": 476.03283450499384,
      "perigee_km": 474.33047015175543,
      "latitude_deg": 1.5056011788053372e-05,
      "longitude_deg": 90.74576424522844,
      "height_km": 476.1271389605019,
      "semi_major_axis_km": 6853.318652328375,
      "eccentricity": 0.0001242,
      "inclination_deg": 53.1581,
      "raan_deg": 292.5553,
      "arg_perigee_deg": 93.204,
      "mean_anomaly_deg": 266.9103,
      "mean_motion_rev_day": 15.30211192
    },
    {
      "epoch": "2026-03-30T00:57:29.322144Z",
      "apogee_km": 476.03283450499384,
      "perigee_km": 474.33047015175543,
      "latitude_deg": 1.5056011379645201e-05,
      "longitude_deg": 90.74576063537364,
      "height_km": 476.12713896050286,
      "semi_major_axis_km": 6853.318652328375,
      "eccentricity": 0.0001242,
      "inclination_deg": 53.1581,
      "raan_deg": 292.5553,
      "arg_perigee_deg": 93.204,
      "mean_anomaly_deg": 266.9103,
      "mean_motion_rev_day": 15.30211192
    },
    {
      "epoch": "2026-03-30T13:29:54.919680Z",
      "apogee_km": 475.6582331630307,
      "perigee_km": 474.7004136736696,
      "latitude_deg": -5.985220510698178e-05,
      "longitude_deg": -100.30106869873465,
      "height_km": 476.09347944116024,
      "semi_major_axis_km": 6853.316323418349,
      "eccentricity": 6.988e-05,
      "inclination_deg": 53.1584,
      "raan_deg": 290.1302,
      "arg_perigee_deg": 91.8522,
      "mean_anomaly_deg": 268.2558,
      "mean_motion_rev_day": 15.30211972
    },
    {
      "epoch": "2026-03-30T19:46:07.698144Z",
      "apogee_km": 475.98932446495473,
      "perigee_km": 474.417853467904,
      "latitude_deg": -2.5745514139052585e-06,
      "longitude_deg": 164.1731220491163,
      "height_km": 476.12361826815567,
      "semi_major_axis_km": 6853.340588966429,
      "eccentricity": 0.00011465,
      "inclination_deg": 53.1582,
      "raan_deg": 288.9151,
      "arg_perigee_deg": 91.6028,
      "mean_anomaly_deg": 268.5104,
      "mean_motion_rev_day": 15.30203845
    },
    {
      "epoch": "2026-03-31T13:00:42.859872Z",
      "apogee_km": 476.01243107008304,
      "perigee_km": 474.2500446100403,
      "latitude_deg": -1.4721439987536224e-06,
      "longitude_deg": -98.51903233836941,
      "height_km": 476.0452399224784,
      "semi_major_axis_km": 6853.268237840061,
      "eccentricity": 0.00012858,
      "inclination_deg": 53.1573,
      "raan_deg": 285.5776,
      "arg_perigee_deg": 91.0552,
      "mean_anomaly_deg": 269.0596,
      "mean_motion_rev_day": 15.30228077
    },
    {
      "epoch": "2026-04-01T18:47:43.865376Z",
      "apogee_km": 475.9014354356714,
      "perigee_km": 474.40330637919124,
      "latitude_deg": 1.3761630773211926e-05,
      "longitude_deg": 167.7393215126393,
      "height_km": 476.0864710308613,
      "semi_major_axis_km": 6853.289370907431,
      "eccentricity": 0.0001093,
      "inclination_deg": 53.1589,
      "raan_deg": 279.8133,
      "arg_perigee_deg": 92.7467,
      "mean_anomaly_deg": 267.3659,
      "mean_motion_rev_day": 15.30220999
    },
    {
      "epoch": "2026-04-02T05:46:04.801440Z",
      "apogee_km": 476.09853454522,
      "perigee_km": 473.94033852022676,
      "latitude_deg": -6.3077430226836e-05,
      "longitude_deg": 0.5769072636620785,
      "height_km": 475.9892332383936,
      "semi_major_axis_km": 6853.156436532723,
      "eccentricity": 0.00015746,
      "inclination_deg": 53.1588,
      "raan_deg": 277.6888,
      "arg_perigee_deg": 93.8383,
      "mean_anomaly_deg": 266.2797,
      "mean_motion_rev_day": 15.30265523
    },
    {
      "epoch": "2026-04-02T21:26:36.888864Z",
      "apogee_km": 475.6817634119616,
      "perigee_km": 474.73010821189473,
      "latitude_deg": 4.4416447126439914e-05,
      "longitude_deg": 121.76611702235375,
      "height_km": 476.5595807643713,
      "semi_major_axis_km": 6853.342935811928,
      "eccentricity": 6.943e-05,
      "inclination_deg": 53.1586,
      "raan_deg": 274.6554,
      "arg_perigee_deg": 162.7208,
      "mean_anomaly_deg": 197.3817,
      "mean_motion_rev_day": 15.30203059
    },
    {
      "epoch": "2026-04-03T19:23:22.826976Z",
      "apogee_km": 476.22177874373665,
      "perigee_km": 474.33571872968423,
      "latitude_deg": 5.621986260195979e-05,
      "longitude_deg": 147.42542297804846,
      "height_km": 476.06793591058266,
      "semi_major_axis_km": 6853.41574873671,
      "eccentricity": 0.0001376,
      "inclination_deg": 53.1594,
      "raan_deg": 270.4074,
      "arg_perigee_deg": 83.3825,
      "mean_anomaly_deg": 276.7333,
      "mean_motion_rev_day": 15.30178673
    },
    {
      "epoch": "2026-04-04T20:28:14.833344Z",
      "apogee_km": 475.91635976748876,
      "perigee_km": 474.526498678043,
      "latitude_deg": 4.159127658684995e-05,
      "longitude_deg": 125.32487334975637,
      "height_km": 476.17934973635107,
      "semi_major_axis_km": 6853.358429222766,
      "eccentricity": 0.0001014,
      "inclination_deg": 53.1586,
      "raan_deg": 265.5536,
      "arg_perigee_deg": 94.9243,
      "mean_anomaly_deg": 265.1874,
      "mean_motion_rev_day": 15.3019787
    },
    {
      "epoch": "2026-04-05T04:18:30.655872Z",
      "apogee_km": 475.9508183096914,
      "perigee_km": 474.41540047238414,
      "latitude_deg": 4.516611563076452e-06,
      "longitude_deg": 5.91933399378535,
      "height_km": 476.11747474980916,
      "semi_major_axis_km": 6853.3201093910375,
      "eccentricity": 0.00011202,
      "inclination_deg": 53.159,
      "raan_deg": 264.0359,
      "arg_perigee_deg": 92.7019,
      "mean_anomaly_deg": 267.411,
      "mean_motion_rev_day": 15.30210704
    },
    {
      "epoch": "2026-04-05T19:59:02.010624Z",
      "apogee_km": 475.84253528810586,
      "perigee_km": 474.472835812252,
      "latitude_deg": -5.0844969416980754e-05,
      "longitude_deg": 127.11238194453894,
      "height_km": 475.9877965600474,
      "semi_major_axis_km": 6853.294685550179,
      "eccentricity": 9.993e-05,
      "inclination_deg": 53.1583,
      "raan_deg": 261.0034,
      "arg_perigee_deg": 84.2873,
      "mean_anomaly_deg": 275.8241,
      "mean_motion_rev_day": 15.30219219
    },
    {
      "epoch": "2026-04-07T03:20:05.676576Z",
      "apogee_km": 476.0296491006302,
      "perigee_km": 474.2976829563113,
      "latitude_deg": -3.551364857004061e-05,
      "longitude_deg": 9.491374806957008,
      "height_km": 476.08638025894686,
      "semi_major_axis_km": 6853.30066602847,
      "eccentricity": 0.00012636,
      "inclination_deg": 53.1576,
      "raan_deg": 254.9352,
      "arg_perigee_deg": 91.6461,
      "mean_anomaly_deg": 268.4684,
      "mean_motion_rev_day": 15.30217216
    },
    {
      "epoch": "2026-04-07T17:26:34.575648Z",
      "apogee_km": 475.73438398496637,
      "perigee_km": 474.67074568450425,
      "latitude_deg": -1.730773941631919e-05,
      "longitude_deg": 154.56047774630824,
      "height_km": 476.1519929727172,
      "semi_major_axis_km": 6853.339564834735,
      "eccentricity": 7.76e-05,
      "inclination_deg": 53.1574,
      "raan_deg": 252.2041,
      "arg_perigee_deg": 95.4991,
      "mean_anomaly_deg": 264.6098,
      "mean_motion_rev_day": 15.30204188
    },
    {
      "epoch": "2026-04-08T15:23:19.362912Z",
      "apogee_km": 476.01265525845065,
      "perigee_km": 474.4328187718738,
      "latitude_deg": -3.496517603951881e-05,
      "longitude_deg": -179.77223271461685,
      "height_km": 476.06689135949455,
      "semi_major_axis_km": 6853.359737015162,
      "eccentricity": 0.00011526,
      "inclination_deg": 53.1567,
      "raan_deg": 247.9593,
      "arg_perigee_deg": 86.0994,
      "mean_anomaly_deg": 274.0138,
      "mean_motion_rev_day": 15.30197432
    },
    {
      "epoch": "2026-04-09T16:28:10.600320Z",
      "apogee_km": 476.1904698572025,
      "perigee_km": 474.1865574770054,
      "latitude_deg": -3.358361240246564e-05,
      "longitude_deg": 158.12914007864765,
      "height_km": 475.98953725260105,
      "semi_major_axis_km": 6853.325513667103,
      "eccentricity": 0.0001462,
      "inclination_deg": 53.1573,
      "raan_deg": 243.1042,
      "arg_perigee_deg": 84.4723,
      "mean_anomaly_deg": 275.6444,
      "mean_motion_rev_day": 15.30208894
    },
    {
      "epoch": "2026-04-10T12:50:51.964224Z",
      "apogee_km": 475.88149478952437,
      "perigee_km": 474.52864506492097,
      "latitude_deg": 6.933239469768993e-06,
      "longitude_deg": -152.3255826765439,
      "height_km": 475.7302040688961,
      "semi_major_axis_km": 6853.342069927223,
      "eccentricity": 9.87e-05,
      "inclination_deg": 53.157,
      "raan_deg": 239.1587,
      "arg_perigee_deg": 56.5121,
      "mean_anomaly_deg": 303.5974,
      "mean_motion_rev_day": 15.30203349
    }
  ]
}